{
"type": "FeatureCollection",
"name": "water_points",
"crs": { "type": "name", "properties": { "name": "urn:ogc:def:crs:OGC:1.3:CRS84" } },
"features": [
{ "type": "Feature", "properties": { "source": "COSO", "canton_nom": "Balanka", "region": "Centrale", "prefecture_nom": "C04", "FRI": 0.087768623477421356, "fri_classe": "Modéré", "total_pop": 9922.117982, "proxy_risque_panne": "Faible risque", "coord_invalide": false, "score_statut": 0.0, "maintenance_manquante": 0.0, "location_name": "ALEGBA", "latitude": 8.824055, "longitude": 1.606965, "forage_chateau_nom": null }, "geometry": { "type": "Point", "coordinates": [ 1.606965, 8.824055 ] } },
{ "type": "Feature", "properties": { "source": "COSO", "canton_nom": "Koussountou", "region": "Centrale", "prefecture_nom": "C04", "FRI": 0.080746948996841927, "fri_classe": "Modéré", "total_pop": 24763.546913000002, "proxy_risque_panne": "Faible risque", "coord_invalide": false, "score_statut": 0.0, "maintenance_manquante": 0.0, "location_name": "ATONTOMI", "latitude": 8.888017, "longitude": 1.577222, "forage_chateau_nom": null }, "geometry": { "type": "Point", "coordinates": [ 1.577222, 8.888017 ] } },
{ "type": "Feature", "properties": { "source": "COSO", "canton_nom": "Tchamba", "region": "Centrale", "prefecture_nom": "C04", "FRI": 0.24088822022045711, "fri_classe": "Élevé", "total_pop": 51412.713723000001, "proxy_risque_panne": "Risque élevé", "coord_invalide": false, "score_statut": 1.0, "maintenance_manquante": 1.0, "location_name": "BELAGNI", "latitude": 8.918368, "longitude": 1.614907, "forage_chateau_nom": null }, "geometry": { "type": "Point", "coordinates": [ 1.614907, 8.918368 ] } },
{ "type": "Feature", "properties": { "source": "COSO", "canton_nom": "Kaboli", "region": "Centrale", "prefecture_nom": "C04", "FRI": 0.093166634759030392, "fri_classe": "Modéré", "total_pop": 33900.633548999998, "proxy_risque_panne": "Risque modéré", "coord_invalide": false, "score_statut": 0.0, "maintenance_manquante": 1.0, "location_name": "AGBANSIKITI", "latitude": 8.691495, "longitude": 1.619747, "forage_chateau_nom": null }, "geometry": { "type": "Point", "coordinates": [ 1.619747, 8.691495 ] } },
{ "type": "Feature", "properties": { "source": "COSO", "canton_nom": "Kaboli", "region": "Centrale", "prefecture_nom": "C04", "FRI": 0.093166634759030392, "fri_classe": "Modéré", "total_pop": 33900.633548999998, "proxy_risque_panne": "Risque modéré", "coord_invalide": false, "score_statut": 1.0, "maintenance_manquante": 0.0, "location_name": "ATAFA 2", "latitude": 8.694493, "longitude": 1.563569, "forage_chateau_nom": null }, "geometry": { "type": "Point", "coordinates": [ 1.563569, 8.694493 ] } },
{ "type": "Feature", "properties": { "source": "COSO", "canton_nom": "Kaboli", "region": "Centrale", "prefecture_nom": "C04", "FRI": 0.093166634759030392, "fri_classe": "Modéré", "total_pop": 33900.633548999998, "proxy_risque_panne": "Risque modéré", "coord_invalide": false, "score_statut": 0.0, "maintenance_manquante": 1.0, "location_name": "BOLEA", "latitude": 8.528625, "longitude": 1.612648, "forage_chateau_nom": null }, "geometry": { "type": "Point", "coordinates": [ 1.612648, 8.528625 ] } },
{ "type": "Feature", "properties": { "source": "COSO", "canton_nom": "Kaboli", "region": "Centrale", "prefecture_nom": "C04", "FRI": 0.093166634759030392, "fri_classe": "Modéré", "total_pop": 33900.633548999998, "proxy_risque_panne": "Risque modéré", "coord_invalide": false, "score_statut": 1.0, "maintenance_manquante": 0.0, "location_name": "KALA 2", "latitude": 8.673588, "longitude": 1.604208, "forage_chateau_nom": null }, "geometry": { "type": "Point", "coordinates": [ 1.604208, 8.673588 ] } },
{ "type": "Feature", "properties": { "source": "COSO", "canton_nom": "Kaboli", "region": "Centrale", "prefecture_nom": "C04", "FRI": 0.093166634759030392, "fri_classe": "Modéré", "total_pop": 33900.633548999998, "proxy_risque_panne": "Faible risque", "coord_invalide": false, "score_statut": 0.0, "maintenance_manquante": 0.0, "location_name": "ODORIN", "latitude": 8.594615, "longitude": 1.616948, "forage_chateau_nom": null }, "geometry": { "type": "Point", "coordinates": [ 1.616948, 8.594615 ] } },
{ "type": "Feature", "properties": { "source": "COSO", "canton_nom": "Kaboli", "region": "Centrale", "prefecture_nom": "C04", "FRI": 0.093166634759030392, "fri_classe": "Modéré", "total_pop": 33900.633548999998, "proxy_risque_panne": "Risque modéré", "coord_invalide": false, "score_statut": 0.0, "maintenance_manquante": 1.0, "location_name": "SOLIMBIA", "latitude": 8.764615, "longitude": 1.617617, "forage_chateau_nom": null }, "geometry": { "type": "Point", "coordinates": [ 1.617617, 8.764615 ] } },
{ "type": "Feature", "properties": { "source": "COSO", "canton_nom": "Pagouda", "region": "Kara", "prefecture_nom": "D03", "FRI": 0.082758790460777054, "fri_classe": "Modéré", "total_pop": 16463.050477000001, "proxy_risque_panne": "Faible risque", "coord_invalide": false, "score_statut": 0.0, "maintenance_manquante": 0.0, "location_name": "ASSERE", "latitude": 9.799855, "longitude": 1.298193, "forage_chateau_nom": null }, "geometry": { "type": "Point", "coordinates": [ 1.298193, 9.799855 ] } },
{ "type": "Feature", "properties": { "source": "COSO", "canton_nom": "Pagouda", "region": "Kara", "prefecture_nom": "D03", "FRI": 0.082758790460777054, "fri_classe": "Modéré", "total_pop": 16463.050477000001, "proxy_risque_panne": "Faible risque", "coord_invalide": false, "score_statut": 0.0, "maintenance_manquante": 0.0, "location_name": "KAGNISSI", "latitude": 9.7638567, "longitude": 1.3124717, "forage_chateau_nom": null }, "geometry": { "type": "Point", "coordinates": [ 1.3124717, 9.7638567 ] } },
{ "type": "Feature", "properties": { "source": "COSO", "canton_nom": "Pagouda", "region": "Kara", "prefecture_nom": "D03", "FRI": 0.082758790460777054, "fri_classe": "Modéré", "total_pop": 16463.050477000001, "proxy_risque_panne": "Faible risque", "coord_invalide": false, "score_statut": 0.0, "maintenance_manquante": 0.0, "location_name": "KAWA", "latitude": 9.73982, "longitude": 1.3079933, "forage_chateau_nom": null }, "geometry": { "type": "Point", "coordinates": [ 1.3079933, 9.73982 ] } },
{ "type": "Feature", "properties": { "source": "COSO", "canton_nom": "Pagouda", "region": "Kara", "prefecture_nom": "D03", "FRI": 0.082758790460777054, "fri_classe": "Modéré", "total_pop": 16463.050477000001, "proxy_risque_panne": "Faible risque", "coord_invalide": false, "score_statut": 0.0, "maintenance_manquante": 0.0, "location_name": "KPANAHORE", "latitude": 9.75361, "longitude": 1.331408, "forage_chateau_nom": null }, "geometry": { "type": "Point", "coordinates": [ 1.331408, 9.75361 ] } },
{ "type": "Feature", "properties": { "source": "COSO", "canton_nom": "Pagouda", "region": "Kara", "prefecture_nom": "D03", "FRI": 0.082758790460777054, "fri_classe": "Modéré", "total_pop": 16463.050477000001, "proxy_risque_panne": "Faible risque", "coord_invalide": false, "score_statut": 0.0, "maintenance_manquante": 0.0, "location_name": "SOMSIA", "latitude": 9.7106983, "longitude": 1.3185617, "forage_chateau_nom": null }, "geometry": { "type": "Point", "coordinates": [ 1.3185617, 9.7106983 ] } },
{ "type": "Feature", "properties": { "source": "COSO", "canton_nom": "Pagouda", "region": "Kara", "prefecture_nom": "D03", "FRI": 0.082758790460777054, "fri_classe": "Modéré", "total_pop": 16463.050477000001, "proxy_risque_panne": "Faible risque", "coord_invalide": false, "score_statut": 0.0, "maintenance_manquante": 0.0, "location_name": "WAZE", "latitude": 9.744758, "longitude": 1.320824, "forage_chateau_nom": null }, "geometry": { "type": "Point", "coordinates": [ 1.320824, 9.744758 ] } },
{ "type": "Feature", "properties": { "source": "COSO", "canton_nom": "Pagouda", "region": "Kara", "prefecture_nom": "D03", "FRI": 0.082758790460777054, "fri_classe": "Modéré", "total_pop": 16463.050477000001, "proxy_risque_panne": "Faible risque", "coord_invalide": false, "score_statut": 0.0, "maintenance_manquante": 0.0, "location_name": "KADJANGA", "latitude": 9.724313, "longitude": 1.35165, "forage_chateau_nom": null }, "geometry": { "type": "Point", "coordinates": [ 1.35165, 9.724313 ] } },
{ "type": "Feature", "properties": { "source": "COSO", "canton_nom": "Kémérida", "region": "Kara", "prefecture_nom": "D03", "FRI": 0.063127761051146619, "fri_classe": "Faible", "total_pop": 5699.819119, "proxy_risque_panne": "Faible risque", "coord_invalide": false, "score_statut": 0.0, "maintenance_manquante": 0.0, "location_name": "TERODA", "latitude": 9.671325, "longitude": 1.357624, "forage_chateau_nom": null }, "geometry": { "type": "Point", "coordinates": [ 1.357624, 9.671325 ] } },
{ "type": "Feature", "properties": { "source": "COSO", "canton_nom": "Boadé", "region": "Savanes", "prefecture_nom": "E01", "FRI": 0.19562829290221415, "fri_classe": "Élevé", "total_pop": 46270.254552, "proxy_risque_panne": "Risque modéré", "coord_invalide": false, "score_statut": 0.0, "maintenance_manquante": 1.0, "location_name": "NAPOGO", "latitude": 11.10989, "longitude": -0.081831, "forage_chateau_nom": null }, "geometry": { "type": "Point", "coordinates": [ -0.081831, 11.10989 ] } },
{ "type": "Feature", "properties": { "source": "COSO", "canton_nom": "Noaga", "region": "Savanes", "prefecture_nom": "E01", "FRI": 0.054625803241745804, "fri_classe": "Faible", "total_pop": 1351.872147, "proxy_risque_panne": "Risque modéré", "coord_invalide": false, "score_statut": 0.0, "maintenance_manquante": 1.0, "location_name": "SANDOGO", "latitude": 11.099809, "longitude": -0.067271, "forage_chateau_nom": null }, "geometry": { "type": "Point", "coordinates": [ -0.067271, 11.099809 ] } },
{ "type": "Feature", "properties": { "source": "COSO", "canton_nom": "Boadé", "region": "Savanes", "prefecture_nom": "E01", "FRI": 0.19562829290221415, "fri_classe": "Élevé", "total_pop": 46270.254552, "proxy_risque_panne": "Risque modéré", "coord_invalide": false, "score_statut": 0.0, "maintenance_manquante": 1.0, "location_name": "WOURI-WOURI", "latitude": 11.116633, "longitude": -0.03386, "forage_chateau_nom": null }, "geometry": { "type": "Point", "coordinates": [ -0.03386, 11.116633 ] } },
{ "type": "Feature", "properties": { "source": "COSO", "canton_nom": "Noaga", "region": "Savanes", "prefecture_nom": "E01", "FRI": 0.054625803241745804, "fri_classe": "Faible", "total_pop": 1351.872147, "proxy_risque_panne": "Risque modéré", "coord_invalide": false, "score_statut": 0.0, "maintenance_manquante": 1.0, "location_name": "ZAMISSI", "latitude": 11.089657, "longitude": -0.066757, "forage_chateau_nom": null }, "geometry": { "type": "Point", "coordinates": [ -0.066757, 11.089657 ] } },
{ "type": "Feature", "properties": { "source": "COSO", "canton_nom": "Boadé", "region": "Savanes", "prefecture_nom": "E01", "FRI": 0.19562829290221415, "fri_classe": "Élevé", "total_pop": 46270.254552, "proxy_risque_panne": "Risque modéré", "coord_invalide": false, "score_statut": 0.0, "maintenance_manquante": 1.0, "location_name": "ZINTANGO", "latitude": 11.125808, "longitude": -0.08592, "forage_chateau_nom": null }, "geometry": { "type": "Point", "coordinates": [ -0.08592, 11.125808 ] } },
{ "type": "Feature", "properties": { "source": "COSO", "canton_nom": "Boadé", "region": "Savanes", "prefecture_nom": "E01", "FRI": 0.19562829290221415, "fri_classe": "Élevé", "total_pop": 46270.254552, "proxy_risque_panne": "Risque modéré", "coord_invalide": false, "score_statut": 0.0, "maintenance_manquante": 1.0, "location_name": "BARGOUNDE", "latitude": 11.081848, "longitude": 0.015431, "forage_chateau_nom": null }, "geometry": { "type": "Point", "coordinates": [ 0.015431, 11.081848 ] } },
{ "type": "Feature", "properties": { "source": "COSO", "canton_nom": "Boadé", "region": "Savanes", "prefecture_nom": "E01", "FRI": 0.19562829290221415, "fri_classe": "Élevé", "total_pop": 46270.254552, "proxy_risque_panne": "Faible risque", "coord_invalide": false, "score_statut": 0.0, "maintenance_manquante": 0.0, "location_name": "KODAGO", "latitude": 11.10398, "longitude": 0.042313, "forage_chateau_nom": null }, "geometry": { "type": "Point", "coordinates": [ 0.042313, 11.10398 ] } },
{ "type": "Feature", "properties": { "source": "COSO", "canton_nom": "Boadé", "region": "Savanes", "prefecture_nom": "E01", "FRI": 0.19562829290221415, "fri_classe": "Élevé", "total_pop": 46270.254552, "proxy_risque_panne": "Risque modéré", "coord_invalide": false, "score_statut": 0.0, "maintenance_manquante": 1.0, "location_name": "SAYODE", "latitude": 11.07053, "longitude": 0.019593, "forage_chateau_nom": null }, "geometry": { "type": "Point", "coordinates": [ 0.019593, 11.07053 ] } },
{ "type": "Feature", "properties": { "source": "COSO", "canton_nom": "Boadé", "region": "Savanes", "prefecture_nom": "E01", "FRI": 0.19562829290221415, "fri_classe": "Élevé", "total_pop": 46270.254552, "proxy_risque_panne": "Faible risque", "coord_invalide": false, "score_statut": 0.0, "maintenance_manquante": 0.0, "location_name": "TIMANGA (CINKASSE)", "latitude": 11.083669, "longitude": 0.031963, "forage_chateau_nom": null }, "geometry": { "type": "Point", "coordinates": [ 0.031963, 11.083669 ] } },
{ "type": "Feature", "properties": { "source": "COSO", "canton_nom": "Boadé", "region": "Savanes", "prefecture_nom": "E01", "FRI": 0.19562829290221415, "fri_classe": "Élevé", "total_pop": 46270.254552, "proxy_risque_panne": "Risque modéré", "coord_invalide": false, "score_statut": 0.0, "maintenance_manquante": 1.0, "location_name": "YIEGOU (CINKASSE)", "latitude": 11.098188, "longitude": 0.036734, "forage_chateau_nom": null }, "geometry": { "type": "Point", "coordinates": [ 0.036734, 11.098188 ] } },
{ "type": "Feature", "properties": { "source": "COSO", "canton_nom": "Boadé", "region": "Savanes", "prefecture_nom": "E01", "FRI": 0.19562829290221415, "fri_classe": "Élevé", "total_pop": 46270.254552, "proxy_risque_panne": "Risque modéré", "coord_invalide": false, "score_statut": 0.0, "maintenance_manquante": 1.0, "location_name": "BINGOULA", "latitude": 11.1176724, "longitude": -0.081247, "forage_chateau_nom": null }, "geometry": { "type": "Point", "coordinates": [ -0.081247, 11.1176724 ] } },
{ "type": "Feature", "properties": { "source": "COSO", "canton_nom": "Boadé", "region": "Savanes", "prefecture_nom": "E01", "FRI": 0.19562829290221415, "fri_classe": "Élevé", "total_pop": 46270.254552, "proxy_risque_panne": "Risque modéré", "coord_invalide": false, "score_statut": 0.0, "maintenance_manquante": 1.0, "location_name": "GNOAGA CENTRE", "latitude": 11.105457, "longitude": -0.103617, "forage_chateau_nom": null }, "geometry": { "type": "Point", "coordinates": [ -0.103617, 11.105457 ] } },
{ "type": "Feature", "properties": { "source": "COSO", "canton_nom": "Noaga", "region": "Savanes", "prefecture_nom": "E01", "FRI": 0.054625803241745804, "fri_classe": "Faible", "total_pop": 1351.872147, "proxy_risque_panne": "Risque modéré", "coord_invalide": false, "score_statut": 0.0, "maintenance_manquante": 1.0, "location_name": "YOUMAKOU", "latitude": 11.099301, "longitude": -0.10443, "forage_chateau_nom": null }, "geometry": { "type": "Point", "coordinates": [ -0.10443, 11.099301 ] } },
{ "type": "Feature", "properties": { "source": "COSO", "canton_nom": "Gouloungoussi", "region": "Savanes", "prefecture_nom": "E01", "FRI": 0.061523537324690319, "fri_classe": "Faible", "total_pop": 4300.628436, "proxy_risque_panne": "Risque modéré", "coord_invalide": false, "score_statut": 0.0, "maintenance_manquante": 1.0, "location_name": "KOULTAMSÉ", "latitude": 11.125092, "longitude": -0.110754, "forage_chateau_nom": null }, "geometry": { "type": "Point", "coordinates": [ -0.110754, 11.125092 ] } },
{ "type": "Feature", "properties": { "source": "COSO", "canton_nom": "Gouloungoussi", "region": "Savanes", "prefecture_nom": "E01", "FRI": 0.061523537324690319, "fri_classe": "Faible", "total_pop": 4300.628436, "proxy_risque_panne": "Risque modéré", "coord_invalide": false, "score_statut": 0.0, "maintenance_manquante": 1.0, "location_name": "SINOGO", "latitude": 11.125092, "longitude": -0.110754, "forage_chateau_nom": null }, "geometry": { "type": "Point", "coordinates": [ -0.110754, 11.125092 ] } },
{ "type": "Feature", "properties": { "source": "COSO", "canton_nom": "Gouloungoussi", "region": "Savanes", "prefecture_nom": "E01", "FRI": 0.061523537324690319, "fri_classe": "Faible", "total_pop": 4300.628436, "proxy_risque_panne": "Faible risque", "coord_invalide": false, "score_statut": 0.0, "maintenance_manquante": 0.0, "location_name": "TENNOGO", "latitude": 11.106438, "longitude": -0.112391, "forage_chateau_nom": null }, "geometry": { "type": "Point", "coordinates": [ -0.112391, 11.106438 ] } },
{ "type": "Feature", "properties": { "source": "COSO", "canton_nom": "Gouloungoussi", "region": "Savanes", "prefecture_nom": "E01", "FRI": 0.061523537324690319, "fri_classe": "Faible", "total_pop": 4300.628436, "proxy_risque_panne": "Risque élevé", "coord_invalide": false, "score_statut": 1.0, "maintenance_manquante": 1.0, "location_name": "ZOUBEKO", "latitude": 11.110269, "longitude": -0.127504, "forage_chateau_nom": null }, "geometry": { "type": "Point", "coordinates": [ -0.127504, 11.110269 ] } },
{ "type": "Feature", "properties": { "source": "COSO", "canton_nom": "Timbou", "region": "Savanes", "prefecture_nom": "E01", "FRI": 0.083349835858232316, "fri_classe": "Modéré", "total_pop": 16092.887444, "proxy_risque_panne": "Risque modéré", "coord_invalide": false, "score_statut": 0.0, "maintenance_manquante": 1.0, "location_name": "DATOULONTE (TIMBOU)", "latitude": 10.989956, "longitude": 0.141467, "forage_chateau_nom": null }, "geometry": { "type": "Point", "coordinates": [ 0.141467, 10.989956 ] } },
{ "type": "Feature", "properties": { "source": "COSO", "canton_nom": "Biankouri", "region": "Savanes", "prefecture_nom": "E01", "FRI": 0.07192656944218638, "fri_classe": "Faible", "total_pop": 15559.899868, "proxy_risque_panne": "Risque modéré", "coord_invalide": false, "score_statut": 0.0, "maintenance_manquante": 1.0, "location_name": "NAMBUITITE TIMBOU", "latitude": 11.033372, "longitude": 0.070502, "forage_chateau_nom": null }, "geometry": { "type": "Point", "coordinates": [ 0.070502, 11.033372 ] } },
{ "type": "Feature", "properties": { "source": "COSO", "canton_nom": "Koundjoaré", "region": "Savanes", "prefecture_nom": "E02", "FRI": 0.10923738545553606, "fri_classe": "Modéré", "total_pop": 17254.4925, "proxy_risque_panne": "Risque élevé", "coord_invalide": false, "score_statut": 1.0, "maintenance_manquante": 1.0, "location_name": "TOMONLE", "latitude": 10.884821, "longitude": 0.669152, "forage_chateau_nom": null }, "geometry": { "type": "Point", "coordinates": [ 0.669152, 10.884821 ] } },
{ "type": "Feature", "properties": { "source": "COSO", "canton_nom": "Mandouri", "region": "Savanes", "prefecture_nom": "E02", "FRI": 0.19156734783243143, "fri_classe": "Élevé", "total_pop": 18144.133, "proxy_risque_panne": "Risque modéré", "coord_invalide": false, "score_statut": 0.0, "maintenance_manquante": 1.0, "location_name": "MANDOURI CENTRE", "latitude": 10.846096, "longitude": 0.817863, "forage_chateau_nom": null }, "geometry": { "type": "Point", "coordinates": [ 0.817863, 10.846096 ] } },
{ "type": "Feature", "properties": { "source": "COSO", "canton_nom": "Nali", "region": "Savanes", "prefecture_nom": "E05", "FRI": 0.078650170030093697, "fri_classe": "Faible", "total_pop": 9649.76, "proxy_risque_panne": "Risque modéré", "coord_invalide": false, "score_statut": 1.0, "maintenance_manquante": 0.0, "location_name": "NALI ANGOH", "latitude": 10.0454774, "longitude": 0.4536523, "forage_chateau_nom": null }, "geometry": { "type": "Point", "coordinates": [ 0.4536523, 10.0454774 ] } },
{ "type": "Feature", "properties": { "source": "COSO", "canton_nom": "Tchamonga", "region": "Savanes", "prefecture_nom": "E05", "FRI": 0.16303100343295712, "fri_classe": "Élevé", "total_pop": 25849.078, "proxy_risque_panne": "Risque modéré", "coord_invalide": false, "score_statut": 1.0, "maintenance_manquante": 0.0, "location_name": "KARKOU", "latitude": 10.48327, "longitude": 0.7693367, "forage_chateau_nom": null }, "geometry": { "type": "Point", "coordinates": [ 0.7693367, 10.48327 ] } },
{ "type": "Feature", "properties": { "source": "COSO", "canton_nom": "Tchamonga", "region": "Savanes", "prefecture_nom": "E05", "FRI": 0.16303100343295712, "fri_classe": "Élevé", "total_pop": 25849.078, "proxy_risque_panne": "Risque modéré", "coord_invalide": false, "score_statut": 1.0, "maintenance_manquante": 0.0, "location_name": "IBASSANDJA", "latitude": 10.4859533, "longitude": 0.7485683, "forage_chateau_nom": null }, "geometry": { "type": "Point", "coordinates": [ 0.7485683, 10.4859533 ] } },
{ "type": "Feature", "properties": { "source": "COSO", "canton_nom": "Sissiak", "region": "Savanes", "prefecture_nom": "E06", "FRI": 0.086809705656272843, "fri_classe": "Modéré", "total_pop": 21951.207428000002, "proxy_risque_panne": "Risque modéré", "coord_invalide": false, "score_statut": 0.0, "maintenance_manquante": 1.0, "location_name": "SIBIOGUE", "latitude": 10.771387, "longitude": 0.091253, "forage_chateau_nom": null }, "geometry": { "type": "Point", "coordinates": [ 0.091253, 10.771387 ] } },
{ "type": "Feature", "properties": { "source": "COSO", "canton_nom": "Tampialime", "region": "Savanes", "prefecture_nom": "E06", "FRI": 0.071813304834614677, "fri_classe": "Faible", "total_pop": 11006.497424000001, "proxy_risque_panne": "Faible risque", "coord_invalide": false, "score_statut": 0.0, "maintenance_manquante": 0.0, "location_name": "KPINKPARBAGOU 1", "latitude": 10.76495, "longitude": -0.035277, "forage_chateau_nom": null }, "geometry": { "type": "Point", "coordinates": [ -0.035277, 10.76495 ] } },
{ "type": "Feature", "properties": { "source": "COSO", "canton_nom": "Lotogou", "region": "Savanes", "prefecture_nom": "E07", "FRI": 0.080649294003066835, "fri_classe": "Modéré", "total_pop": 14368.997732000002, "proxy_risque_panne": "Risque élevé", "coord_invalide": false, "score_statut": 1.0, "maintenance_manquante": 1.0, "location_name": "KOULMATIK-MIRE", "latitude": 10.77684, "longitude": 0.052255, "forage_chateau_nom": null }, "geometry": { "type": "Point", "coordinates": [ 0.052255, 10.77684 ] } },
{ "type": "Feature", "properties": { "source": "COSO", "canton_nom": "Tampialime", "region": "Savanes", "prefecture_nom": "E06", "FRI": 0.071813304834614677, "fri_classe": "Faible", "total_pop": 11006.497424000001, "proxy_risque_panne": "Faible risque", "coord_invalide": false, "score_statut": 0.0, "maintenance_manquante": 0.0, "location_name": "KPINKPARBAGOU 2", "latitude": 10.7588133, "longitude": -0.0154217, "forage_chateau_nom": null }, "geometry": { "type": "Point", "coordinates": [ -0.0154217, 10.7588133 ] } },
{ "type": "Feature", "properties": { "source": "COSO", "canton_nom": "Sissiak", "region": "Savanes", "prefecture_nom": "E06", "FRI": 0.086809705656272843, "fri_classe": "Modéré", "total_pop": 21951.207428000002, "proxy_risque_panne": "Risque modéré", "coord_invalide": false, "score_statut": 0.0, "maintenance_manquante": 1.0, "location_name": "PIABRIBAGOU", "latitude": 10.780718, "longitude": 0.127192, "forage_chateau_nom": null }, "geometry": { "type": "Point", "coordinates": [ 0.127192, 10.780718 ] } },
{ "type": "Feature", "properties": { "source": "COSO", "canton_nom": "Tampialime", "region": "Savanes", "prefecture_nom": "E06", "FRI": 0.071813304834614677, "fri_classe": "Faible", "total_pop": 11006.497424000001, "proxy_risque_panne": "Faible risque", "coord_invalide": false, "score_statut": 0.0, "maintenance_manquante": 0.0, "location_name": "NALONGUE 1", "latitude": 10.7307983, "longitude": -0.0069233, "forage_chateau_nom": null }, "geometry": { "type": "Point", "coordinates": [ -0.0069233, 10.7307983 ] } },
{ "type": "Feature", "properties": { "source": "COSO", "canton_nom": "Mango", "region": "Savanes", "prefecture_nom": "E04", "FRI": 0.14859365224220841, "fri_classe": "Élevé", "total_pop": 46142.328, "proxy_risque_panne": "Risque élevé", "coord_invalide": false, "score_statut": 1.0, "maintenance_manquante": 1.0, "location_name": "MAGNA", "latitude": 10.3384158, "longitude": 0.4571656, "forage_chateau_nom": null }, "geometry": { "type": "Point", "coordinates": [ 0.4571656, 10.3384158 ] } },
{ "type": "Feature", "properties": { "source": "COSO", "canton_nom": "Mango", "region": "Savanes", "prefecture_nom": "E04", "FRI": 0.14859365224220841, "fri_classe": "Élevé", "total_pop": 46142.328, "proxy_risque_panne": "Risque élevé", "coord_invalide": false, "score_statut": 1.0, "maintenance_manquante": 1.0, "location_name": "FOMBORO", "latitude": 10.3531358, "longitude": 0.4777628, "forage_chateau_nom": null }, "geometry": { "type": "Point", "coordinates": [ 0.4777628, 10.3531358 ] } },
{ "type": "Feature", "properties": { "source": "COSO", "canton_nom": "Mango", "region": "Savanes", "prefecture_nom": "E04", "FRI": 0.14859365224220841, "fri_classe": "Élevé", "total_pop": 46142.328, "proxy_risque_panne": "Risque élevé", "coord_invalide": false, "score_statut": 1.0, "maintenance_manquante": 1.0, "location_name": "DOUANE-EST", "latitude": 10.3392083, "longitude": 0.4729033, "forage_chateau_nom": null }, "geometry": { "type": "Point", "coordinates": [ 0.4729033, 10.3392083 ] } },
{ "type": "Feature", "properties": { "source": "COSO", "canton_nom": "Mango", "region": "Savanes", "prefecture_nom": "E04", "FRI": 0.14859365224220841, "fri_classe": "Élevé", "total_pop": 46142.328, "proxy_risque_panne": "Risque élevé", "coord_invalide": false, "score_statut": 1.0, "maintenance_manquante": 1.0, "location_name": "DJABOU", "latitude": 10.3644199, "longitude": 0.4783607, "forage_chateau_nom": null }, "geometry": { "type": "Point", "coordinates": [ 0.4783607, 10.3644199 ] } },
{ "type": "Feature", "properties": { "source": "COSO", "canton_nom": "Mango", "region": "Savanes", "prefecture_nom": "E04", "FRI": 0.14859365224220841, "fri_classe": "Élevé", "total_pop": 46142.328, "proxy_risque_panne": "Risque élevé", "coord_invalide": false, "score_statut": 1.0, "maintenance_manquante": 1.0, "location_name": "GNANGBANDI (MANGO)", "latitude": 10.32394, "longitude": 0.43644, "forage_chateau_nom": null }, "geometry": { "type": "Point", "coordinates": [ 0.43644, 10.32394 ] } },
{ "type": "Feature", "properties": { "source": "COSO", "canton_nom": "Naki-Ouest", "region": "Savanes", "prefecture_nom": "E07", "FRI": 0.1395996130609366, "fri_classe": "Élevé", "total_pop": 29006.828232000003, "proxy_risque_panne": "Risque modéré", "coord_invalide": false, "score_statut": 1.0, "maintenance_manquante": 0.0, "location_name": "GNABADJOUANI 2", "latitude": 10.966555, "longitude": 0.13158, "forage_chateau_nom": null }, "geometry": { "type": "Point", "coordinates": [ 0.13158, 10.966555 ] } },
{ "type": "Feature", "properties": { "source": "COSO", "canton_nom": "Naki-Ouest", "region": "Savanes", "prefecture_nom": "E07", "FRI": 0.1395996130609366, "fri_classe": "Élevé", "total_pop": 29006.828232000003, "proxy_risque_panne": "Faible risque", "coord_invalide": false, "score_statut": 0.0, "maintenance_manquante": 0.0, "location_name": "YOBRE 1", "latitude": 10.938128, "longitude": 0.094391, "forage_chateau_nom": null }, "geometry": { "type": "Point", "coordinates": [ 0.094391, 10.938128 ] } },
{ "type": "Feature", "properties": { "source": "COSO", "canton_nom": "Takpamba", "region": "Savanes", "prefecture_nom": "E05", "FRI": 0.12152908397245658, "fri_classe": "Modéré", "total_pop": 11565.466044000001, "proxy_risque_panne": "Risque élevé", "coord_invalide": false, "score_statut": 1.0, "maintenance_manquante": 1.0, "location_name": "DJIRIDJO", "latitude": 10.01441, "longitude": 0.5215, "forage_chateau_nom": null }, "geometry": { "type": "Point", "coordinates": [ 0.5215, 10.01441 ] } },
{ "type": "Feature", "properties": { "source": "COSO", "canton_nom": "Naompoch", "region": "Kara", "prefecture_nom": "D04", "FRI": 0.11413936699690165, "fri_classe": "Modéré", "total_pop": 12702.092056000001, "proxy_risque_panne": "Risque élevé", "coord_invalide": false, "score_statut": 1.0, "maintenance_manquante": 1.0, "location_name": "SAPOLI", "latitude": 9.844028, "longitude": 0.704147, "forage_chateau_nom": null }, "geometry": { "type": "Point", "coordinates": [ 0.704147, 9.844028 ] } },
{ "type": "Feature", "properties": { "source": "COSO", "canton_nom": "Takpamba", "region": "Savanes", "prefecture_nom": "E05", "FRI": 0.12152908397245658, "fri_classe": "Modéré", "total_pop": 11565.466044000001, "proxy_risque_panne": "Risque modéré", "coord_invalide": false, "score_statut": 0.0, "maintenance_manquante": 1.0, "location_name": "LENIDO", "latitude": 9.946635, "longitude": 0.5972867, "forage_chateau_nom": null }, "geometry": { "type": "Point", "coordinates": [ 0.5972867, 9.946635 ] } },
{ "type": "Feature", "properties": { "source": "COSO", "canton_nom": "Tami", "region": "Savanes", "prefecture_nom": "E07", "FRI": 0.089711122593925469, "fri_classe": "Modéré", "total_pop": 27285.246944000002, "proxy_risque_panne": "Risque élevé", "coord_invalide": false, "score_statut": 1.0, "maintenance_manquante": 1.0, "location_name": "SAMBROUGUE", "latitude": 10.9115583, "longitude": -0.005415, "forage_chateau_nom": null }, "geometry": { "type": "Point", "coordinates": [ -0.005415, 10.9115583 ] } },
{ "type": "Feature", "properties": { "source": "COSO", "canton_nom": "Tami", "region": "Savanes", "prefecture_nom": "E07", "FRI": 0.089711122593925469, "fri_classe": "Modéré", "total_pop": 27285.246944000002, "proxy_risque_panne": "Risque élevé", "coord_invalide": false, "score_statut": 1.0, "maintenance_manquante": 1.0, "location_name": "POAMONGUE", "latitude": 10.853297, "longitude": 0.063415, "forage_chateau_nom": null }, "geometry": { "type": "Point", "coordinates": [ 0.063415, 10.853297 ] } },
{ "type": "Feature", "properties": { "source": "COSO", "canton_nom": "Lotogou", "region": "Savanes", "prefecture_nom": "E07", "FRI": 0.080649294003066835, "fri_classe": "Modéré", "total_pop": 14368.997732000002, "proxy_risque_panne": "Risque élevé", "coord_invalide": false, "score_statut": 1.0, "maintenance_manquante": 1.0, "location_name": "LOTOGOU CENTRE", "latitude": 10.798171, "longitude": 0.025296, "forage_chateau_nom": null }, "geometry": { "type": "Point", "coordinates": [ 0.025296, 10.798171 ] } },
{ "type": "Feature", "properties": { "source": "COSO", "canton_nom": "Doukpergou", "region": "Savanes", "prefecture_nom": "E06", "FRI": 0.066997608769567077, "fri_classe": "Faible", "total_pop": 7683.922928, "proxy_risque_panne": "Risque élevé", "coord_invalide": false, "score_statut": 1.0, "maintenance_manquante": 1.0, "location_name": "MAGNA BAS", "latitude": 10.6417033, "longitude": 0.0908567, "forage_chateau_nom": null }, "geometry": { "type": "Point", "coordinates": [ 0.0908567, 10.6417033 ] } },
{ "type": "Feature", "properties": { "source": "COSO", "canton_nom": "Naki-Ouest", "region": "Savanes", "prefecture_nom": "E07", "FRI": 0.1395996130609366, "fri_classe": "Élevé", "total_pop": 29006.828232000003, "proxy_risque_panne": "Risque élevé", "coord_invalide": false, "score_statut": 1.0, "maintenance_manquante": 1.0, "location_name": "KPATCHIANGBANE 1", "latitude": 10.9534483, "longitude": -0.0034733, "forage_chateau_nom": null }, "geometry": { "type": "Point", "coordinates": [ -0.0034733, 10.9534483 ] } },
{ "type": "Feature", "properties": { "source": "COSO", "canton_nom": "Naki-Ouest", "region": "Savanes", "prefecture_nom": "E07", "FRI": 0.1395996130609366, "fri_classe": "Élevé", "total_pop": 29006.828232000003, "proxy_risque_panne": "Risque élevé", "coord_invalide": false, "score_statut": 1.0, "maintenance_manquante": 1.0, "location_name": "BASSOUDOUGOU", "latitude": 10.9422383, "longitude": 0.0246017, "forage_chateau_nom": null }, "geometry": { "type": "Point", "coordinates": [ 0.0246017, 10.9422383 ] } },
{ "type": "Feature", "properties": { "source": "COSO", "canton_nom": "Naki-Ouest", "region": "Savanes", "prefecture_nom": "E07", "FRI": 0.1395996130609366, "fri_classe": "Élevé", "total_pop": 29006.828232000003, "proxy_risque_panne": "Risque élevé", "coord_invalide": false, "score_statut": 1.0, "maintenance_manquante": 1.0, "location_name": "NAKORGOU", "latitude": 10.933573, "longitude": 0.068247, "forage_chateau_nom": null }, "geometry": { "type": "Point", "coordinates": [ 0.068247, 10.933573 ] } },
{ "type": "Feature", "properties": { "source": "COSO", "canton_nom": "Naki-Ouest", "region": "Savanes", "prefecture_nom": "E07", "FRI": 0.1395996130609366, "fri_classe": "Élevé", "total_pop": 29006.828232000003, "proxy_risque_panne": "Risque élevé", "coord_invalide": false, "score_statut": 1.0, "maintenance_manquante": 1.0, "location_name": "KARIATA", "latitude": 10.893852, "longitude": 0.061661, "forage_chateau_nom": null }, "geometry": { "type": "Point", "coordinates": [ 0.061661, 10.893852 ] } },
{ "type": "Feature", "properties": { "source": "COSO", "canton_nom": "Naki-Ouest", "region": "Savanes", "prefecture_nom": "E07", "FRI": 0.1395996130609366, "fri_classe": "Élevé", "total_pop": 29006.828232000003, "proxy_risque_panne": "Risque élevé", "coord_invalide": false, "score_statut": 1.0, "maintenance_manquante": 1.0, "location_name": "TCHANDANA", "latitude": 10.934593, "longitude": 0.11905, "forage_chateau_nom": null }, "geometry": { "type": "Point", "coordinates": [ 0.11905, 10.934593 ] } },
{ "type": "Feature", "properties": { "source": "COSO", "canton_nom": "Tamongue", "region": "Savanes", "prefecture_nom": "E06", "FRI": 0.08099052721406387, "fri_classe": "Modéré", "total_pop": 25918.681132000002, "proxy_risque_panne": "Risque élevé", "coord_invalide": false, "score_statut": 1.0, "maintenance_manquante": 1.0, "location_name": "KEREKETE", "latitude": 10.4833243, "longitude": 0.2093732, "forage_chateau_nom": null }, "geometry": { "type": "Point", "coordinates": [ 0.2093732, 10.4833243 ] } },
{ "type": "Feature", "properties": { "source": "COSO", "canton_nom": "Galangashie", "region": "Savanes", "prefecture_nom": "E04", "FRI": 0.15359817208843171, "fri_classe": "Élevé", "total_pop": 13586.156, "proxy_risque_panne": "Risque élevé", "coord_invalide": false, "score_statut": 1.0, "maintenance_manquante": 1.0, "location_name": "KPANDJINI", "latitude": 10.5348583, "longitude": 0.32996, "forage_chateau_nom": null }, "geometry": { "type": "Point", "coordinates": [ 0.32996, 10.5348583 ] } },
{ "type": "Feature", "properties": { "source": "COSO", "canton_nom": "Gando", "region": "Savanes", "prefecture_nom": "E05", "FRI": 0.090156673021486375, "fri_classe": "Modéré", "total_pop": 27533.4315, "proxy_risque_panne": "Faible risque", "coord_invalide": false, "score_statut": 0.0, "maintenance_manquante": 0.0, "location_name": "DJE-DJABOU", "latitude": 10.3179254, "longitude": 0.7220782, "forage_chateau_nom": null }, "geometry": { "type": "Point", "coordinates": [ 0.7220782, 10.3179254 ] } },
{ "type": "Feature", "properties": { "source": "COSO", "canton_nom": "Gando", "region": "Savanes", "prefecture_nom": "E05", "FRI": 0.090156673021486375, "fri_classe": "Modéré", "total_pop": 27533.4315, "proxy_risque_panne": "Risque élevé", "coord_invalide": false, "score_statut": 1.0, "maintenance_manquante": 1.0, "location_name": "GBATENI", "latitude": 10.2540124, "longitude": 0.7433078, "forage_chateau_nom": null }, "geometry": { "type": "Point", "coordinates": [ 0.7433078, 10.2540124 ] } },
{ "type": "Feature", "properties": { "source": "COSO", "canton_nom": "Gando", "region": "Savanes", "prefecture_nom": "E05", "FRI": 0.090156673021486375, "fri_classe": "Modéré", "total_pop": 27533.4315, "proxy_risque_panne": "Risque élevé", "coord_invalide": false, "score_statut": 1.0, "maintenance_manquante": 1.0, "location_name": "NAKPATI", "latitude": 10.3497677, "longitude": 0.8183641, "forage_chateau_nom": null }, "geometry": { "type": "Point", "coordinates": [ 0.8183641, 10.3497677 ] } },
{ "type": "Feature", "properties": { "source": "COSO", "canton_nom": "Nanergou", "region": "Savanes", "prefecture_nom": "E07", "FRI": 0.080353858202831169, "fri_classe": "Modéré", "total_pop": 12015.208568, "proxy_risque_panne": "Risque élevé", "coord_invalide": false, "score_statut": 1.0, "maintenance_manquante": 1.0, "location_name": "TCHANKOUNKOUNKONG", "latitude": 10.936937, "longitude": 0.146811, "forage_chateau_nom": null }, "geometry": { "type": "Point", "coordinates": [ 0.146811, 10.936937 ] } },
{ "type": "Feature", "properties": { "source": "COSO", "canton_nom": "Tami", "region": "Savanes", "prefecture_nom": "E07", "FRI": 0.089711122593925469, "fri_classe": "Modéré", "total_pop": 27285.246944000002, "proxy_risque_panne": "Risque élevé", "coord_invalide": false, "score_statut": 1.0, "maintenance_manquante": 1.0, "location_name": "TAMI-CENTRE", "latitude": 10.858083, "longitude": 0.040576, "forage_chateau_nom": null }, "geometry": { "type": "Point", "coordinates": [ 0.040576, 10.858083 ] } },
{ "type": "Feature", "properties": { "source": "COSO", "canton_nom": "Warkambou", "region": "Savanes", "prefecture_nom": "E07", "FRI": 0.067537670070016639, "fri_classe": "Faible", "total_pop": 7144.533836000001, "proxy_risque_panne": "Risque élevé", "coord_invalide": false, "score_statut": 1.0, "maintenance_manquante": 1.0, "location_name": "WARKAMBOU CENTRE 1", "latitude": 10.804232, "longitude": -0.013278, "forage_chateau_nom": null }, "geometry": { "type": "Point", "coordinates": [ -0.013278, 10.804232 ] } },
{ "type": "Feature", "properties": { "source": "COSO", "canton_nom": "Koundjoaré", "region": "Savanes", "prefecture_nom": "E02", "FRI": 0.10923738545553606, "fri_classe": "Modéré", "total_pop": 17254.4925, "proxy_risque_panne": "Risque élevé", "coord_invalide": false, "score_statut": 1.0, "maintenance_manquante": 1.0, "location_name": "TAMBATE", "latitude": 10.935298, "longitude": 0.64414, "forage_chateau_nom": null }, "geometry": { "type": "Point", "coordinates": [ 0.64414, 10.935298 ] } },
{ "type": "Feature", "properties": { "source": "COSO", "canton_nom": "Koundjoaré", "region": "Savanes", "prefecture_nom": "E02", "FRI": 0.10923738545553606, "fri_classe": "Modéré", "total_pop": 17254.4925, "proxy_risque_panne": "Risque élevé", "coord_invalide": false, "score_statut": 1.0, "maintenance_manquante": 1.0, "location_name": "SANLOAGA", "latitude": 10.968935, "longitude": 0.786435, "forage_chateau_nom": null }, "geometry": { "type": "Point", "coordinates": [ 0.786435, 10.968935 ] } },
{ "type": "Feature", "properties": { "source": "COSO", "canton_nom": "Sangou", "region": "Savanes", "prefecture_nom": "E06", "FRI": 0.041031115574160927, "fri_classe": "Faible", "total_pop": 4302.68124, "proxy_risque_panne": "Risque élevé", "coord_invalide": false, "score_statut": 1.0, "maintenance_manquante": 1.0, "location_name": "PATKONE TOMONG", "latitude": 10.6047967, "longitude": 0.0393583, "forage_chateau_nom": null }, "geometry": { "type": "Point", "coordinates": [ 0.0393583, 10.6047967 ] } },
{ "type": "Feature", "properties": { "source": "COSO", "canton_nom": "Tami", "region": "Savanes", "prefecture_nom": "E07", "FRI": 0.089711122593925469, "fri_classe": "Modéré", "total_pop": 27285.246944000002, "proxy_risque_panne": "Risque élevé", "coord_invalide": false, "score_statut": 1.0, "maintenance_manquante": 1.0, "location_name": "NATCHARE", "latitude": 10.8657, "longitude": 0.031187, "forage_chateau_nom": null }, "geometry": { "type": "Point", "coordinates": [ 0.031187, 10.8657 ] } },
{ "type": "Feature", "properties": { "source": "COSO", "canton_nom": "Kaboli", "region": "Centrale", "prefecture_nom": "C04", "FRI": 0.093166634759030392, "fri_classe": "Modéré", "total_pop": 33900.633548999998, "proxy_risque_panne": "Risque élevé", "coord_invalide": false, "score_statut": 1.0, "maintenance_manquante": 1.0, "location_name": "KABOLI", "latitude": 8.746372, "longitude": 1.575045, "forage_chateau_nom": null }, "geometry": { "type": "Point", "coordinates": [ 1.575045, 8.746372 ] } },
{ "type": "Feature", "properties": { "source": "COSO", "canton_nom": "Boadé", "region": "Savanes", "prefecture_nom": "E01", "FRI": 0.19562829290221415, "fri_classe": "Élevé", "total_pop": 46270.254552, "proxy_risque_panne": "Risque élevé", "coord_invalide": false, "score_statut": 1.0, "maintenance_manquante": 1.0, "location_name": "ZOLALE", "latitude": 11.093908, "longitude": 0.029553, "forage_chateau_nom": null }, "geometry": { "type": "Point", "coordinates": [ 0.029553, 11.093908 ] } },
{ "type": "Feature", "properties": { "source": "COSO", "canton_nom": "Kountoire", "region": "Savanes", "prefecture_nom": "E05", "FRI": 0.084017239235314053, "fri_classe": "Modéré", "total_pop": 15218.455194, "proxy_risque_panne": "Risque élevé", "coord_invalide": false, "score_statut": 1.0, "maintenance_manquante": 1.0, "location_name": "NASSIKOU", "latitude": 10.165172, "longitude": 0.729873, "forage_chateau_nom": null }, "geometry": { "type": "Point", "coordinates": [ 0.729873, 10.165172 ] } },
{ "type": "Feature", "properties": { "source": "COSO", "canton_nom": "Kountoire", "region": "Savanes", "prefecture_nom": "E05", "FRI": 0.084017239235314053, "fri_classe": "Modéré", "total_pop": 15218.455194, "proxy_risque_panne": "Risque élevé", "coord_invalide": false, "score_statut": 1.0, "maintenance_manquante": 1.0, "location_name": "TIEPAH", "latitude": 10.178085, "longitude": 0.612965, "forage_chateau_nom": null }, "geometry": { "type": "Point", "coordinates": [ 0.612965, 10.178085 ] } },
{ "type": "Feature", "properties": { "source": "COSO", "canton_nom": "Sagbiebou", "region": "Savanes", "prefecture_nom": "E05", "FRI": 0.074502862905318296, "fri_classe": "Faible", "total_pop": 12685.904, "proxy_risque_panne": "Risque élevé", "coord_invalide": false, "score_statut": 1.0, "maintenance_manquante": 1.0, "location_name": "BAOULE", "latitude": 10.263224, "longitude": 0.578949, "forage_chateau_nom": null }, "geometry": { "type": "Point", "coordinates": [ 0.578949, 10.263224 ] } },
{ "type": "Feature", "properties": { "source": "COSO", "canton_nom": "Balanka", "region": "Centrale", "prefecture_nom": "C04", "FRI": 0.087768623477421356, "fri_classe": "Modéré", "total_pop": 9922.117982, "proxy_risque_panne": "Risque modéré", "coord_invalide": false, "score_statut": 0.0, "maintenance_manquante": 1.0, "location_name": "DOGODE", "latitude": 8.786747, "longitude": 1.630917, "forage_chateau_nom": null }, "geometry": { "type": "Point", "coordinates": [ 1.630917, 8.786747 ] } },
{ "type": "Feature", "properties": { "source": "COSO", "canton_nom": "Boadé", "region": "Savanes", "prefecture_nom": "E01", "FRI": 0.19562829290221415, "fri_classe": "Élevé", "total_pop": 46270.254552, "proxy_risque_panne": "Faible risque", "coord_invalide": false, "score_statut": 0.0, "maintenance_manquante": 0.0, "location_name": "BOADE CENTRE", "latitude": 11.137485, "longitude": -0.081247, "forage_chateau_nom": null }, "geometry": { "type": "Point", "coordinates": [ -0.081247, 11.137485 ] } },
{ "type": "Feature", "properties": { "source": "COSO", "canton_nom": "Gouloungoussi", "region": "Savanes", "prefecture_nom": "E01", "FRI": 0.061523537324690319, "fri_classe": "Faible", "total_pop": 4300.628436, "proxy_risque_panne": "Risque modéré", "coord_invalide": false, "score_statut": 0.0, "maintenance_manquante": 1.0, "location_name": "KODINZOAGA", "latitude": 11.139244, "longitude": -0.113093, "forage_chateau_nom": null }, "geometry": { "type": "Point", "coordinates": [ -0.113093, 11.139244 ] } },
{ "type": "Feature", "properties": { "source": "TdE", "canton_nom": "Agoè-Nyivé", "region": "Maritime", "prefecture_nom": "A01", "FRI": 0.49309713723152732, "fri_classe": "Élevé", "total_pop": 358223.44280800002, "proxy_risque_panne": "Non évalué (donnée indisponible)", "coord_invalide": false, "score_statut": null, "maintenance_manquante": null, "location_name": null, "latitude": null, "longitude": null, "forage_chateau_nom": "Forage" }, "geometry": { "type": "Point", "coordinates": [ 1.200791666666667, 6.206308333333332 ] } },
{ "type": "Feature", "properties": { "source": "TdE", "canton_nom": "Agoè-Nyivé", "region": "Maritime", "prefecture_nom": "A01", "FRI": 0.49309713723152732, "fri_classe": "Élevé", "total_pop": 358223.44280800002, "proxy_risque_panne": "Non évalué (donnée indisponible)", "coord_invalide": false, "score_statut": null, "maintenance_manquante": null, "location_name": null, "latitude": null, "longitude": null, "forage_chateau_nom": "Forage" }, "geometry": { "type": "Point", "coordinates": [ 1.201506666666666, 6.20825 ] } },
{ "type": "Feature", "properties": { "source": "TdE", "canton_nom": "Agoè-Nyivé", "region": "Maritime", "prefecture_nom": "A01", "FRI": 0.49309713723152732, "fri_classe": "Élevé", "total_pop": 358223.44280800002, "proxy_risque_panne": "Non évalué (donnée indisponible)", "coord_invalide": false, "score_statut": null, "maintenance_manquante": null, "location_name": null, "latitude": null, "longitude": null, "forage_chateau_nom": "Forage" }, "geometry": { "type": "Point", "coordinates": [ 1.20243, 6.208016666666667 ] } },
{ "type": "Feature", "properties": { "source": "TdE", "canton_nom": "Agoè-Nyivé", "region": "Maritime", "prefecture_nom": "A01", "FRI": 0.49309713723152732, "fri_classe": "Élevé", "total_pop": 358223.44280800002, "proxy_risque_panne": "Non évalué (donnée indisponible)", "coord_invalide": false, "score_statut": null, "maintenance_manquante": null, "location_name": null, "latitude": null, "longitude": null, "forage_chateau_nom": "Forage" }, "geometry": { "type": "Point", "coordinates": [ 1.20366648982033, 6.207501047411497 ] } },
{ "type": "Feature", "properties": { "source": "TdE", "canton_nom": "Agoè-Nyivé", "region": "Maritime", "prefecture_nom": "A01", "FRI": 0.49309713723152732, "fri_classe": "Élevé", "total_pop": 358223.44280800002, "proxy_risque_panne": "Non évalué (donnée indisponible)", "coord_invalide": false, "score_statut": null, "maintenance_manquante": null, "location_name": null, "latitude": null, "longitude": null, "forage_chateau_nom": "Forage" }, "geometry": { "type": "Point", "coordinates": [ 1.201426666666667, 6.208295 ] } },
{ "type": "Feature", "properties": { "source": "TdE", "canton_nom": "Agoè-Nyivé", "region": "Maritime", "prefecture_nom": "A01", "FRI": 0.49309713723152732, "fri_classe": "Élevé", "total_pop": 358223.44280800002, "proxy_risque_panne": "Non évalué (donnée indisponible)", "coord_invalide": false, "score_statut": null, "maintenance_manquante": null, "location_name": null, "latitude": null, "longitude": null, "forage_chateau_nom": "Forage" }, "geometry": { "type": "Point", "coordinates": [ 1.205403333333333, 6.20774 ] } },
{ "type": "Feature", "properties": { "source": "TdE", "canton_nom": "Agoè-Nyivé", "region": "Maritime", "prefecture_nom": "A01", "FRI": 0.49309713723152732, "fri_classe": "Élevé", "total_pop": 358223.44280800002, "proxy_risque_panne": "Non évalué (donnée indisponible)", "coord_invalide": false, "score_statut": null, "maintenance_manquante": null, "location_name": null, "latitude": null, "longitude": null, "forage_chateau_nom": "Forage" }, "geometry": { "type": "Point", "coordinates": [ 1.201645, 6.207003333333335 ] } },
{ "type": "Feature", "properties": { "source": "TdE", "canton_nom": "Agoè-Nyivé", "region": "Maritime", "prefecture_nom": "A01", "FRI": 0.49309713723152732, "fri_classe": "Élevé", "total_pop": 358223.44280800002, "proxy_risque_panne": "Non évalué (donnée indisponible)", "coord_invalide": false, "score_statut": null, "maintenance_manquante": null, "location_name": null, "latitude": null, "longitude": null, "forage_chateau_nom": "Forage" }, "geometry": { "type": "Point", "coordinates": [ 1.20204, 6.207326666666667 ] } },
{ "type": "Feature", "properties": { "source": "TdE", "canton_nom": "Agoè-Nyivé", "region": "Maritime", "prefecture_nom": "A01", "FRI": 0.49309713723152732, "fri_classe": "Élevé", "total_pop": 358223.44280800002, "proxy_risque_panne": "Non évalué (donnée indisponible)", "coord_invalide": false, "score_statut": null, "maintenance_manquante": null, "location_name": null, "latitude": null, "longitude": null, "forage_chateau_nom": "Forage" }, "geometry": { "type": "Point", "coordinates": [ 1.201225, 6.20672 ] } },
{ "type": "Feature", "properties": { "source": "TdE", "canton_nom": "Agoè-Nyivé", "region": "Maritime", "prefecture_nom": "A01", "FRI": 0.49309713723152732, "fri_classe": "Élevé", "total_pop": 358223.44280800002, "proxy_risque_panne": "Non évalué (donnée indisponible)", "coord_invalide": false, "score_statut": null, "maintenance_manquante": null, "location_name": null, "latitude": null, "longitude": null, "forage_chateau_nom": "Forage" }, "geometry": { "type": "Point", "coordinates": [ 1.18421, 6.21621 ] } },
{ "type": "Feature", "properties": { "source": "TdE", "canton_nom": "Agoè-Nyivé", "region": "Maritime", "prefecture_nom": "A01", "FRI": 0.49309713723152732, "fri_classe": "Élevé", "total_pop": 358223.44280800002, "proxy_risque_panne": "Non évalué (donnée indisponible)", "coord_invalide": false, "score_statut": null, "maintenance_manquante": null, "location_name": null, "latitude": null, "longitude": null, "forage_chateau_nom": "Forage" }, "geometry": { "type": "Point", "coordinates": [ 1.189786666666667, 6.210908333333333 ] } },
{ "type": "Feature", "properties": { "source": "TdE", "canton_nom": "Agoè-Nyivé", "region": "Maritime", "prefecture_nom": "A01", "FRI": 0.49309713723152732, "fri_classe": "Élevé", "total_pop": 358223.44280800002, "proxy_risque_panne": "Non évalué (donnée indisponible)", "coord_invalide": false, "score_statut": null, "maintenance_manquante": null, "location_name": null, "latitude": null, "longitude": null, "forage_chateau_nom": "Forage" }, "geometry": { "type": "Point", "coordinates": [ 1.218611666666667, 6.240578333333334 ] } },
{ "type": "Feature", "properties": { "source": "TdE", "canton_nom": "Agoè-Nyivé", "region": "Maritime", "prefecture_nom": "A01", "FRI": 0.49309713723152732, "fri_classe": "Élevé", "total_pop": 358223.44280800002, "proxy_risque_panne": "Non évalué (donnée indisponible)", "coord_invalide": false, "score_statut": null, "maintenance_manquante": null, "location_name": null, "latitude": null, "longitude": null, "forage_chateau_nom": "Forage" }, "geometry": { "type": "Point", "coordinates": [ 1.182713333333333, 6.21202 ] } },
{ "type": "Feature", "properties": { "source": "TdE", "canton_nom": "Agoè-Nyivé", "region": "Maritime", "prefecture_nom": "A01", "FRI": 0.49309713723152732, "fri_classe": "Élevé", "total_pop": 358223.44280800002, "proxy_risque_panne": "Non évalué (donnée indisponible)", "coord_invalide": false, "score_statut": null, "maintenance_manquante": null, "location_name": null, "latitude": null, "longitude": null, "forage_chateau_nom": "Forage" }, "geometry": { "type": "Point", "coordinates": [ 1.18268, 6.211938333333333 ] } },
{ "type": "Feature", "properties": { "source": "TdE", "canton_nom": "Agoè-Nyivé", "region": "Maritime", "prefecture_nom": "A01", "FRI": 0.49309713723152732, "fri_classe": "Élevé", "total_pop": 358223.44280800002, "proxy_risque_panne": "Non évalué (donnée indisponible)", "coord_invalide": false, "score_statut": null, "maintenance_manquante": null, "location_name": null, "latitude": null, "longitude": null, "forage_chateau_nom": "Forage" }, "geometry": { "type": "Point", "coordinates": [ 1.17653, 6.2215 ] } },
{ "type": "Feature", "properties": { "source": "TdE", "canton_nom": "Agoè-Nyivé", "region": "Maritime", "prefecture_nom": "A01", "FRI": 0.49309713723152732, "fri_classe": "Élevé", "total_pop": 358223.44280800002, "proxy_risque_panne": "Non évalué (donnée indisponible)", "coord_invalide": false, "score_statut": null, "maintenance_manquante": null, "location_name": null, "latitude": null, "longitude": null, "forage_chateau_nom": "Forage" }, "geometry": { "type": "Point", "coordinates": [ 1.2103, 6.243005 ] } },
{ "type": "Feature", "properties": { "source": "TdE", "canton_nom": "Agoè-Nyivé", "region": "Maritime", "prefecture_nom": "A01", "FRI": 0.49309713723152732, "fri_classe": "Élevé", "total_pop": 358223.44280800002, "proxy_risque_panne": "Non évalué (donnée indisponible)", "coord_invalide": false, "score_statut": null, "maintenance_manquante": null, "location_name": null, "latitude": null, "longitude": null, "forage_chateau_nom": "Forage" }, "geometry": { "type": "Point", "coordinates": [ 1.223111666666666, 6.22818 ] } },
{ "type": "Feature", "properties": { "source": "TdE", "canton_nom": "Agoè-Nyivé", "region": "Maritime", "prefecture_nom": "A01", "FRI": 0.49309713723152732, "fri_classe": "Élevé", "total_pop": 358223.44280800002, "proxy_risque_panne": "Non évalué (donnée indisponible)", "coord_invalide": false, "score_statut": null, "maintenance_manquante": null, "location_name": null, "latitude": null, "longitude": null, "forage_chateau_nom": "Forage" }, "geometry": { "type": "Point", "coordinates": [ 1.200465, 6.206983333333333 ] } },
{ "type": "Feature", "properties": { "source": "TdE", "canton_nom": "Agoè-Nyivé", "region": "Maritime", "prefecture_nom": "A01", "FRI": 0.49309713723152732, "fri_classe": "Élevé", "total_pop": 358223.44280800002, "proxy_risque_panne": "Non évalué (donnée indisponible)", "coord_invalide": false, "score_statut": null, "maintenance_manquante": null, "location_name": null, "latitude": null, "longitude": null, "forage_chateau_nom": "Forage" }, "geometry": { "type": "Point", "coordinates": [ 1.200398333333334, 6.207581666666664 ] } },
{ "type": "Feature", "properties": { "source": "TdE", "canton_nom": "Légbassito", "region": "Maritime", "prefecture_nom": "A01", "FRI": 0.34328626002598667, "fri_classe": "Élevé", "total_pop": 154480.559802, "proxy_risque_panne": "Non évalué (donnée indisponible)", "coord_invalide": false, "score_statut": null, "maintenance_manquante": null, "location_name": null, "latitude": null, "longitude": null, "forage_chateau_nom": "Forage" }, "geometry": { "type": "Point", "coordinates": [ 1.156118333333334, 6.2731 ] } },
{ "type": "Feature", "properties": { "source": "TdE", "canton_nom": "Légbassito", "region": "Maritime", "prefecture_nom": "A01", "FRI": 0.34328626002598667, "fri_classe": "Élevé", "total_pop": 154480.559802, "proxy_risque_panne": "Non évalué (donnée indisponible)", "coord_invalide": false, "score_statut": null, "maintenance_manquante": null, "location_name": null, "latitude": null, "longitude": null, "forage_chateau_nom": "Forage" }, "geometry": { "type": "Point", "coordinates": [ 1.162078333333333, 6.29845 ] } },
{ "type": "Feature", "properties": { "source": "TdE", "canton_nom": "Légbassito", "region": "Maritime", "prefecture_nom": "A01", "FRI": 0.34328626002598667, "fri_classe": "Élevé", "total_pop": 154480.559802, "proxy_risque_panne": "Non évalué (donnée indisponible)", "coord_invalide": false, "score_statut": null, "maintenance_manquante": null, "location_name": null, "latitude": null, "longitude": null, "forage_chateau_nom": "Forage" }, "geometry": { "type": "Point", "coordinates": [ 1.164831666666667, 6.302976666666666 ] } },
{ "type": "Feature", "properties": { "source": "TdE", "canton_nom": "Vakpossito", "region": "Maritime", "prefecture_nom": "A01", "FRI": 0.24856343264341363, "fri_classe": "Élevé", "total_pop": 63267.956927000007, "proxy_risque_panne": "Non évalué (donnée indisponible)", "coord_invalide": false, "score_statut": null, "maintenance_manquante": null, "location_name": null, "latitude": null, "longitude": null, "forage_chateau_nom": "Forage" }, "geometry": { "type": "Point", "coordinates": [ 1.177026666666667, 6.21339 ] } },
{ "type": "Feature", "properties": { "source": "TdE", "canton_nom": "Vakpossito", "region": "Maritime", "prefecture_nom": "A01", "FRI": 0.24856343264341363, "fri_classe": "Élevé", "total_pop": 63267.956927000007, "proxy_risque_panne": "Non évalué (donnée indisponible)", "coord_invalide": false, "score_statut": null, "maintenance_manquante": null, "location_name": null, "latitude": null, "longitude": null, "forage_chateau_nom": "Forage" }, "geometry": { "type": "Point", "coordinates": [ 1.173691666666667, 6.218505 ] } },
{ "type": "Feature", "properties": { "source": "TdE", "canton_nom": "Vakpossito", "region": "Maritime", "prefecture_nom": "A01", "FRI": 0.24856343264341363, "fri_classe": "Élevé", "total_pop": 63267.956927000007, "proxy_risque_panne": "Non évalué (donnée indisponible)", "coord_invalide": false, "score_statut": null, "maintenance_manquante": null, "location_name": null, "latitude": null, "longitude": null, "forage_chateau_nom": "Forage" }, "geometry": { "type": "Point", "coordinates": [ 1.173685, 6.218591666666667 ] } },
{ "type": "Feature", "properties": { "source": "TdE", "canton_nom": "Vakpossito", "region": "Maritime", "prefecture_nom": "A01", "FRI": 0.24856343264341363, "fri_classe": "Élevé", "total_pop": 63267.956927000007, "proxy_risque_panne": "Non évalué (donnée indisponible)", "coord_invalide": false, "score_statut": null, "maintenance_manquante": null, "location_name": null, "latitude": null, "longitude": null, "forage_chateau_nom": "Forage" }, "geometry": { "type": "Point", "coordinates": [ 1.178995, 6.217398333333332 ] } },
{ "type": "Feature", "properties": { "source": "TdE", "canton_nom": "Vakpossito", "region": "Maritime", "prefecture_nom": "A01", "FRI": 0.24856343264341363, "fri_classe": "Élevé", "total_pop": 63267.956927000007, "proxy_risque_panne": "Non évalué (donnée indisponible)", "coord_invalide": false, "score_statut": null, "maintenance_manquante": null, "location_name": null, "latitude": null, "longitude": null, "forage_chateau_nom": "Nsp" }, "geometry": { "type": "Point", "coordinates": [ 1.160828333333334, 6.218258333333333 ] } },
{ "type": "Feature", "properties": { "source": "TdE", "canton_nom": "Togblekope", "region": "Maritime", "prefecture_nom": "A01", "FRI": 0.41444260352557744, "fri_classe": "Élevé", "total_pop": 179199.32092100001, "proxy_risque_panne": "Non évalué (donnée indisponible)", "coord_invalide": false, "score_statut": null, "maintenance_manquante": null, "location_name": null, "latitude": null, "longitude": null, "forage_chateau_nom": "Forage" }, "geometry": { "type": "Point", "coordinates": [ 1.209351666666667, 6.262661666666665 ] } },
{ "type": "Feature", "properties": { "source": "TdE", "canton_nom": "Togblekope", "region": "Maritime", "prefecture_nom": "A01", "FRI": 0.41444260352557744, "fri_classe": "Élevé", "total_pop": 179199.32092100001, "proxy_risque_panne": "Non évalué (donnée indisponible)", "coord_invalide": false, "score_statut": null, "maintenance_manquante": null, "location_name": null, "latitude": null, "longitude": null, "forage_chateau_nom": "Forage" }, "geometry": { "type": "Point", "coordinates": [ 1.220286666666667, 6.263633333333332 ] } },
{ "type": "Feature", "properties": { "source": "TdE", "canton_nom": "Togblekope", "region": "Maritime", "prefecture_nom": "A01", "FRI": 0.41444260352557744, "fri_classe": "Élevé", "total_pop": 179199.32092100001, "proxy_risque_panne": "Non évalué (donnée indisponible)", "coord_invalide": false, "score_statut": null, "maintenance_manquante": null, "location_name": null, "latitude": null, "longitude": null, "forage_chateau_nom": "Château de Dikame" }, "geometry": { "type": "Point", "coordinates": [ 1.23272, 6.244791666666666 ] } },
{ "type": "Feature", "properties": { "source": "TdE", "canton_nom": "Togblekope", "region": "Maritime", "prefecture_nom": "A01", "FRI": 0.41444260352557744, "fri_classe": "Élevé", "total_pop": 179199.32092100001, "proxy_risque_panne": "Non évalué (donnée indisponible)", "coord_invalide": false, "score_statut": null, "maintenance_manquante": null, "location_name": null, "latitude": null, "longitude": null, "forage_chateau_nom": "Forage" }, "geometry": { "type": "Point", "coordinates": [ 1.211811666666667, 6.27798 ] } },
{ "type": "Feature", "properties": { "source": "TdE", "canton_nom": "Togblekope", "region": "Maritime", "prefecture_nom": "A01", "FRI": 0.41444260352557744, "fri_classe": "Élevé", "total_pop": 179199.32092100001, "proxy_risque_panne": "Non évalué (donnée indisponible)", "coord_invalide": false, "score_statut": null, "maintenance_manquante": null, "location_name": null, "latitude": null, "longitude": null, "forage_chateau_nom": "Château de Fidokpui" }, "geometry": { "type": "Point", "coordinates": [ 1.22365, 6.261855 ] } },
{ "type": "Feature", "properties": { "source": "TdE", "canton_nom": "Togblekope", "region": "Maritime", "prefecture_nom": "A01", "FRI": 0.41444260352557744, "fri_classe": "Élevé", "total_pop": 179199.32092100001, "proxy_risque_panne": "Non évalué (donnée indisponible)", "coord_invalide": false, "score_statut": null, "maintenance_manquante": null, "location_name": null, "latitude": null, "longitude": null, "forage_chateau_nom": "Forage" }, "geometry": { "type": "Point", "coordinates": [ 1.182025, 6.292586666666667 ] } },
{ "type": "Feature", "properties": { "source": "TdE", "canton_nom": "Adétikopé", "region": "Maritime", "prefecture_nom": "A01", "FRI": 0.22269216254564025, "fri_classe": "Élevé", "total_pop": 52840.089426, "proxy_risque_panne": "Non évalué (donnée indisponible)", "coord_invalide": false, "score_statut": null, "maintenance_manquante": null, "location_name": null, "latitude": null, "longitude": null, "forage_chateau_nom": "Forage B'16Bis" }, "geometry": { "type": "Point", "coordinates": [ 1.207198333333334, 6.31472 ] } },
{ "type": "Feature", "properties": { "source": "TdE", "canton_nom": "Adétikopé", "region": "Maritime", "prefecture_nom": "A01", "FRI": 0.22269216254564025, "fri_classe": "Élevé", "total_pop": 52840.089426, "proxy_risque_panne": "Non évalué (donnée indisponible)", "coord_invalide": false, "score_statut": null, "maintenance_manquante": null, "location_name": null, "latitude": null, "longitude": null, "forage_chateau_nom": "Forage" }, "geometry": { "type": "Point", "coordinates": [ 1.2135, 6.344771666666666 ] } },
{ "type": "Feature", "properties": { "source": "TdE", "canton_nom": "Adétikopé", "region": "Maritime", "prefecture_nom": "A01", "FRI": 0.22269216254564025, "fri_classe": "Élevé", "total_pop": 52840.089426, "proxy_risque_panne": "Non évalué (donnée indisponible)", "coord_invalide": false, "score_statut": null, "maintenance_manquante": null, "location_name": null, "latitude": null, "longitude": null, "forage_chateau_nom": "Forage" }, "geometry": { "type": "Point", "coordinates": [ 1.21092, 6.323951666666668 ] } },
{ "type": "Feature", "properties": { "source": "TdE", "canton_nom": "Adétikopé", "region": "Maritime", "prefecture_nom": "A01", "FRI": 0.22269216254564025, "fri_classe": "Élevé", "total_pop": 52840.089426, "proxy_risque_panne": "Non évalué (donnée indisponible)", "coord_invalide": false, "score_statut": null, "maintenance_manquante": null, "location_name": null, "latitude": null, "longitude": null, "forage_chateau_nom": "Forage C'10" }, "geometry": { "type": "Point", "coordinates": [ 1.219308333333333, 6.322853333333334 ] } },
{ "type": "Feature", "properties": { "source": "TdE", "canton_nom": "Adétikopé", "region": "Maritime", "prefecture_nom": "A01", "FRI": 0.22269216254564025, "fri_classe": "Élevé", "total_pop": 52840.089426, "proxy_risque_panne": "Non évalué (donnée indisponible)", "coord_invalide": false, "score_statut": null, "maintenance_manquante": null, "location_name": null, "latitude": null, "longitude": null, "forage_chateau_nom": "Forage" }, "geometry": { "type": "Point", "coordinates": [ 1.19735, 6.316366666666667 ] } },
{ "type": "Feature", "properties": { "source": "TdE", "canton_nom": "Vogan", "region": "Maritime", "prefecture_nom": "A06", "FRI": 0.24144304608030634, "fri_classe": "Élevé", "total_pop": 58675.742912000002, "proxy_risque_panne": "Non évalué (donnée indisponible)", "coord_invalide": false, "score_statut": null, "maintenance_manquante": null, "location_name": null, "latitude": null, "longitude": null, "forage_chateau_nom": "Forage Massekope" }, "geometry": { "type": "Point", "coordinates": [ 1.5386, 6.36603 ] } },
{ "type": "Feature", "properties": { "source": "TdE", "canton_nom": "Vogan", "region": "Maritime", "prefecture_nom": "A06", "FRI": 0.24144304608030634, "fri_classe": "Élevé", "total_pop": 58675.742912000002, "proxy_risque_panne": "Non évalué (donnée indisponible)", "coord_invalide": false, "score_statut": null, "maintenance_manquante": null, "location_name": null, "latitude": null, "longitude": null, "forage_chateau_nom": "Forage" }, "geometry": { "type": "Point", "coordinates": [ 1.510528333333333, 6.285457635839358 ] } },
{ "type": "Feature", "properties": { "source": "TdE", "canton_nom": "Vogan", "region": "Maritime", "prefecture_nom": "A06", "FRI": 0.24144304608030634, "fri_classe": "Élevé", "total_pop": 58675.742912000002, "proxy_risque_panne": "Non évalué (donnée indisponible)", "coord_invalide": false, "score_statut": null, "maintenance_manquante": null, "location_name": null, "latitude": null, "longitude": null, "forage_chateau_nom": "Forage" }, "geometry": { "type": "Point", "coordinates": [ 1.456863333333333, 6.333263333333334 ] } },
{ "type": "Feature", "properties": { "source": "TdE", "canton_nom": "Kpétsou", "region": "Maritime", "prefecture_nom": "A03", "FRI": 0.087262396040915458, "fri_classe": "Modéré", "total_pop": 13667.775344000001, "proxy_risque_panne": "Non évalué (donnée indisponible)", "coord_invalide": false, "score_statut": null, "maintenance_manquante": null, "location_name": null, "latitude": null, "longitude": null, "forage_chateau_nom": "Forage de Kpessou" }, "geometry": { "type": "Point", "coordinates": [ 1.583853333333334, 6.523803333333333 ] } },
{ "type": "Feature", "properties": { "source": "TdE", "canton_nom": "Vo-Koutimé", "region": "Maritime", "prefecture_nom": "A06", "FRI": 0.075525165830131052, "fri_classe": "Faible", "total_pop": 17235.135028000001, "proxy_risque_panne": "Non évalué (donnée indisponible)", "coord_invalide": false, "score_statut": null, "maintenance_manquante": null, "location_name": null, "latitude": null, "longitude": null, "forage_chateau_nom": "Nsp" }, "geometry": { "type": "Point", "coordinates": [ 1.585586666666667, 6.334843333333333 ] } },
{ "type": "Feature", "properties": { "source": "TdE", "canton_nom": "Vo-Koutimé", "region": "Maritime", "prefecture_nom": "A06", "FRI": 0.075525165830131052, "fri_classe": "Faible", "total_pop": 17235.135028000001, "proxy_risque_panne": "Non évalué (donnée indisponible)", "coord_invalide": false, "score_statut": null, "maintenance_manquante": null, "location_name": null, "latitude": null, "longitude": null, "forage_chateau_nom": "Nsp" }, "geometry": { "type": "Point", "coordinates": [ 1.605856666666667, 6.378925 ] } },
{ "type": "Feature", "properties": { "source": "TdE", "canton_nom": "Vo-Koutimé", "region": "Maritime", "prefecture_nom": "A06", "FRI": 0.075525165830131052, "fri_classe": "Faible", "total_pop": 17235.135028000001, "proxy_risque_panne": "Non évalué (donnée indisponible)", "coord_invalide": false, "score_statut": null, "maintenance_manquante": null, "location_name": null, "latitude": null, "longitude": null, "forage_chateau_nom": "Nsp" }, "geometry": { "type": "Point", "coordinates": [ 1.55241, 6.35256 ] } },
{ "type": "Feature", "properties": { "source": "TdE", "canton_nom": "Togoville", "region": "Maritime", "prefecture_nom": "A06", "FRI": 0.12052462137294964, "fri_classe": "Modéré", "total_pop": 22257.389248, "proxy_risque_panne": "Non évalué (donnée indisponible)", "coord_invalide": false, "score_statut": null, "maintenance_manquante": null, "location_name": null, "latitude": null, "longitude": null, "forage_chateau_nom": "Forage" }, "geometry": { "type": "Point", "coordinates": [ 1.518326933154162, 6.240244005855418 ] } },
{ "type": "Feature", "properties": { "source": "TdE", "canton_nom": "Togoville", "region": "Maritime", "prefecture_nom": "A06", "FRI": 0.12052462137294964, "fri_classe": "Modéré", "total_pop": 22257.389248, "proxy_risque_panne": "Non évalué (donnée indisponible)", "coord_invalide": false, "score_statut": null, "maintenance_manquante": null, "location_name": null, "latitude": null, "longitude": null, "forage_chateau_nom": "Nsp" }, "geometry": { "type": "Point", "coordinates": [ 1.475731666666667, 6.240231666666666 ] } },
{ "type": "Feature", "properties": { "source": "TdE", "canton_nom": "Afagnangan", "region": "Maritime", "prefecture_nom": "A03", "FRI": 0.28149439449223518, "fri_classe": "Élevé", "total_pop": 17676.188806000002, "proxy_risque_panne": "Non évalué (donnée indisponible)", "coord_invalide": false, "score_statut": null, "maintenance_manquante": null, "location_name": null, "latitude": null, "longitude": null, "forage_chateau_nom": "Forage de Saint Jean de Dieu" }, "geometry": { "type": "Point", "coordinates": [ 1.630853333333333, 6.49491 ] } },
{ "type": "Feature", "properties": { "source": "TdE", "canton_nom": "Agome-Glozou", "region": "Maritime", "prefecture_nom": "A03", "FRI": 0.097773264397823578, "fri_classe": "Modéré", "total_pop": 11154.366591, "proxy_risque_panne": "Non évalué (donnée indisponible)", "coord_invalide": false, "score_statut": null, "maintenance_manquante": null, "location_name": null, "latitude": null, "longitude": null, "forage_chateau_nom": "Forage du Château de Agbetiko" }, "geometry": { "type": "Point", "coordinates": [ 1.687986666666667, 6.496021666666666 ] } },
{ "type": "Feature", "properties": { "source": "TdE", "canton_nom": "Dagbati", "region": "Maritime", "prefecture_nom": "A06", "FRI": 0.087460178339828165, "fri_classe": "Modéré", "total_pop": 26317.452928000002, "proxy_risque_panne": "Non évalué (donnée indisponible)", "coord_invalide": false, "score_statut": null, "maintenance_manquante": null, "location_name": null, "latitude": null, "longitude": null, "forage_chateau_nom": "Nsp" }, "geometry": { "type": "Point", "coordinates": [ 1.492178333333333, 6.429775 ] } },
{ "type": "Feature", "properties": { "source": "TdE", "canton_nom": "Dzrékpo", "region": "Maritime", "prefecture_nom": "A06", "FRI": 0.090809521688921951, "fri_classe": "Modéré", "total_pop": 16098.90578, "proxy_risque_panne": "Non évalué (donnée indisponible)", "coord_invalide": false, "score_statut": null, "maintenance_manquante": null, "location_name": null, "latitude": null, "longitude": null, "forage_chateau_nom": "Nsp" }, "geometry": { "type": "Point", "coordinates": [ 1.566766666666666, 6.454429275512832 ] } },
{ "type": "Feature", "properties": { "source": "TdE", "canton_nom": "Aflao-Sagbado", "region": "Maritime", "prefecture_nom": "A04", "FRI": 0.53630702715745227, "fri_classe": "Élevé", "total_pop": 429551.97679099999, "proxy_risque_panne": "Non évalué (donnée indisponible)", "coord_invalide": false, "score_statut": null, "maintenance_manquante": null, "location_name": null, "latitude": null, "longitude": null, "forage_chateau_nom": "Forage de Lankouvi" }, "geometry": { "type": "Point", "coordinates": [ 1.126291666666666, 6.178793333333334 ] } },
{ "type": "Feature", "properties": { "source": "TdE", "canton_nom": "Aflao-Sagbado", "region": "Maritime", "prefecture_nom": "A04", "FRI": 0.53630702715745227, "fri_classe": "Élevé", "total_pop": 429551.97679099999, "proxy_risque_panne": "Non évalué (donnée indisponible)", "coord_invalide": false, "score_statut": null, "maintenance_manquante": null, "location_name": null, "latitude": null, "longitude": null, "forage_chateau_nom": "Forage de Kleme" }, "geometry": { "type": "Point", "coordinates": [ 1.111235, 6.212123333333333 ] } },
{ "type": "Feature", "properties": { "source": "TdE", "canton_nom": "Aklakou", "region": "Maritime", "prefecture_nom": "A05", "FRI": 0.12809816331714366, "fri_classe": "Élevé", "total_pop": 16023.308526000001, "proxy_risque_panne": "Non évalué (donnée indisponible)", "coord_invalide": false, "score_statut": null, "maintenance_manquante": null, "location_name": null, "latitude": null, "longitude": null, "forage_chateau_nom": "Forage de Aklakou" }, "geometry": { "type": "Point", "coordinates": [ 1.706518333333334, 6.331805 ] } },
{ "type": "Feature", "properties": { "source": "TdE", "canton_nom": "Fiata", "region": "Maritime", "prefecture_nom": "A05", "FRI": 0.083854052177165045, "fri_classe": "Modéré", "total_pop": 21109.450521, "proxy_risque_panne": "Non évalué (donnée indisponible)", "coord_invalide": false, "score_statut": null, "maintenance_manquante": null, "location_name": null, "latitude": null, "longitude": null, "forage_chateau_nom": "Forage de Attoeta" }, "geometry": { "type": "Point", "coordinates": [ 1.663408333333333, 6.301435 ] } },
{ "type": "Feature", "properties": { "source": "TdE", "canton_nom": "Ganavé", "region": "Maritime", "prefecture_nom": "A05", "FRI": 0.078835435878357354, "fri_classe": "Faible", "total_pop": 13326.048686, "proxy_risque_panne": "Non évalué (donnée indisponible)", "coord_invalide": false, "score_statut": null, "maintenance_manquante": null, "location_name": null, "latitude": null, "longitude": null, "forage_chateau_nom": "Forage de Fiata" }, "geometry": { "type": "Point", "coordinates": [ 1.634243333333333, 6.327195 ] } },
{ "type": "Feature", "properties": { "source": "TdE", "canton_nom": "Dalavé", "region": "Maritime", "prefecture_nom": "A08", "FRI": 0.21194754158122667, "fri_classe": "Élevé", "total_pop": 24395.010801, "proxy_risque_panne": "Non évalué (donnée indisponible)", "coord_invalide": false, "score_statut": null, "maintenance_manquante": null, "location_name": null, "latitude": null, "longitude": null, "forage_chateau_nom": "Forage" }, "geometry": { "type": "Point", "coordinates": [ 1.23862, 6.364176666666665 ] } },
{ "type": "Feature", "properties": { "source": "TdE", "canton_nom": "Dalavé", "region": "Maritime", "prefecture_nom": "A08", "FRI": 0.21194754158122667, "fri_classe": "Élevé", "total_pop": 24395.010801, "proxy_risque_panne": "Non évalué (donnée indisponible)", "coord_invalide": false, "score_statut": null, "maintenance_manquante": null, "location_name": null, "latitude": null, "longitude": null, "forage_chateau_nom": "Forage" }, "geometry": { "type": "Point", "coordinates": [ 1.259591666666667, 6.378316666666665 ] } },
{ "type": "Feature", "properties": { "source": "TdE", "canton_nom": "Gbatopé", "region": "Maritime", "prefecture_nom": "A08", "FRI": 0.09163910686267604, "fri_classe": "Modéré", "total_pop": 17898.923668, "proxy_risque_panne": "Non évalué (donnée indisponible)", "coord_invalide": false, "score_statut": null, "maintenance_manquante": null, "location_name": null, "latitude": null, "longitude": null, "forage_chateau_nom": "Forage" }, "geometry": { "type": "Point", "coordinates": [ 1.306855, 6.406038333333333 ] } },
{ "type": "Feature", "properties": { "source": "TdE", "canton_nom": "Gbatopé", "region": "Maritime", "prefecture_nom": "A08", "FRI": 0.09163910686267604, "fri_classe": "Modéré", "total_pop": 17898.923668, "proxy_risque_panne": "Non évalué (donnée indisponible)", "coord_invalide": false, "score_statut": null, "maintenance_manquante": null, "location_name": null, "latitude": null, "longitude": null, "forage_chateau_nom": "Forage" }, "geometry": { "type": "Point", "coordinates": [ 1.310488333333333, 6.424141666666666 ] } },
{ "type": "Feature", "properties": { "source": "TdE", "canton_nom": "Gbatopé", "region": "Maritime", "prefecture_nom": "A08", "FRI": 0.09163910686267604, "fri_classe": "Modéré", "total_pop": 17898.923668, "proxy_risque_panne": "Non évalué (donnée indisponible)", "coord_invalide": false, "score_statut": null, "maintenance_manquante": null, "location_name": null, "latitude": null, "longitude": null, "forage_chateau_nom": "Forage" }, "geometry": { "type": "Point", "coordinates": [ 1.302305, 6.41805 ] } },
{ "type": "Feature", "properties": { "source": "TdE", "canton_nom": "Gbatopé", "region": "Maritime", "prefecture_nom": "A08", "FRI": 0.09163910686267604, "fri_classe": "Modéré", "total_pop": 17898.923668, "proxy_risque_panne": "Non évalué (donnée indisponible)", "coord_invalide": false, "score_statut": null, "maintenance_manquante": null, "location_name": null, "latitude": null, "longitude": null, "forage_chateau_nom": "Forage" }, "geometry": { "type": "Point", "coordinates": [ 1.310605, 6.42417 ] } },
{ "type": "Feature", "properties": { "source": "TdE", "canton_nom": "Gbatopé", "region": "Maritime", "prefecture_nom": "A08", "FRI": 0.09163910686267604, "fri_classe": "Modéré", "total_pop": 17898.923668, "proxy_risque_panne": "Non évalué (donnée indisponible)", "coord_invalide": false, "score_statut": null, "maintenance_manquante": null, "location_name": null, "latitude": null, "longitude": null, "forage_chateau_nom": "Forage" }, "geometry": { "type": "Point", "coordinates": [ 1.310506666666667, 6.424131666666667 ] } },
{ "type": "Feature", "properties": { "source": "TdE", "canton_nom": "Gbatopé", "region": "Maritime", "prefecture_nom": "A08", "FRI": 0.09163910686267604, "fri_classe": "Modéré", "total_pop": 17898.923668, "proxy_risque_panne": "Non évalué (donnée indisponible)", "coord_invalide": false, "score_statut": null, "maintenance_manquante": null, "location_name": null, "latitude": null, "longitude": null, "forage_chateau_nom": "Forage" }, "geometry": { "type": "Point", "coordinates": [ 1.293403333333334, 6.40355 ] } },
{ "type": "Feature", "properties": { "source": "TdE", "canton_nom": "Tchamba", "region": "Centrale", "prefecture_nom": "C04", "FRI": 0.24088822022045711, "fri_classe": "Élevé", "total_pop": 51412.713723000001, "proxy_risque_panne": "Non évalué (donnée indisponible)", "coord_invalide": false, "score_statut": null, "maintenance_manquante": null, "location_name": null, "latitude": null, "longitude": null, "forage_chateau_nom": "Larini" }, "geometry": { "type": "Point", "coordinates": [ 1.410941666666667, 9.033538333333333 ] } },
{ "type": "Feature", "properties": { "source": "TdE", "canton_nom": "Agbodrafo", "region": "Maritime", "prefecture_nom": "A05", "FRI": 0.49207349082298196, "fri_classe": "Élevé", "total_pop": 89404.008474999995, "proxy_risque_panne": "Non évalué (donnée indisponible)", "coord_invalide": false, "score_statut": null, "maintenance_manquante": null, "location_name": null, "latitude": null, "longitude": null, "forage_chateau_nom": "Forage de Kpeme" }, "geometry": { "type": "Point", "coordinates": [ 1.51378, 6.223778333333332 ] } },
{ "type": "Feature", "properties": { "source": "TdE", "canton_nom": "Wahala", "region": "Plateaux", "prefecture_nom": "B07", "FRI": 0.16539548574364726, "fri_classe": "Élevé", "total_pop": 45121.113774999998, "proxy_risque_panne": "Non évalué (donnée indisponible)", "coord_invalide": false, "score_statut": null, "maintenance_manquante": null, "location_name": null, "latitude": null, "longitude": null, "forage_chateau_nom": "Forage de Château d'Eau" }, "geometry": { "type": "Point", "coordinates": [ 1.165571666666667, 7.178566666666669 ] } }
]
}
